[{"OBJECT_NAME":"OBJECT M","OBJECT_ID":"2025-155M","EPOCH":"2026-03-09T22:37:12.666144","MEAN_MOTION":15.33288683,"ECCENTRICITY":0.00088001,"INCLINATION":97.4429,"RA_OF_ASC_NODE":38.1052,"ARG_OF_PERICENTER":139.1253,"MEAN_ANOMALY":221.0651,"EPHEMERIS_TYPE":0,"CLASSIFICATION_TYPE":"U","NORAD_CAT_ID":64887,"ELEMENT_SET_NO":999,"REV_AT_EPOCH":6565,"BSTAR":0.00087834095,"MEAN_MOTION_DOT":0.00028279,"MEAN_MOTION_DDOT":0},{"OBJECT_NAME":"STARLINK-35333","OBJECT_ID":"2025-243F","EPOCH":"2026-03-09T17:01:15.616992","MEAN_MOTION":15.30193869,"ECCENTRICITY":0.00011196,"INCLINATION":53.158,"RA_OF_ASC_NODE":245.3827,"ARG_OF_PERICENTER":53.1059,"MEAN_ANOMALY":307.0044,"EPHEMERIS_TYPE":0,"CLASSIFICATION_TYPE":"U","NORAD_CAT_ID":66182,"ELEMENT_SET_NO":999,"REV_AT_EPOCH":2065,"BSTAR":0.0012962691,"MEAN_MOTION_DOT":0.00038223,"MEAN_MOTION_DDOT":0}]
